ONEWEB-0589             
1 54655U 22166P   24157.14471898 -.00000249  00000+0 -63442-3 0  9991
2 54655  87.9302  31.6996 0000965 103.9095 256.2146 13.21826601 73519
ONEWEB-0590             
1 54656U 22166Q   24157.62255137 -.00000007  00000+0 -47535-4 0  9999
2 54656  87.9303  31.6112 0001858  76.1967 283.9374 13.21825827 73566
ONEWEB-0591             
1 54657U 22166R   24157.18098683 -.00000002  00000+0 -36712-4 0  9992
2 54657  87.9301  31.6956 0001695  82.5809 277.5517 13.21825285 73539
ONEWEB-0592             
1 54658U 22166S   24157.41123040 -.00000002  00000+0 -36148-4 0  9998
2 54658  87.9297  31.6158 0001545  81.4151 278.7158 13.21826002 73442
ONEWEB-0593             
1 54659U 22166T   24157.58627928  .00000033  00000+0  48387-4 0  9991
2 54659  87.9298  31.6058 0001594  83.9119 276.2196 13.21825533 73575
ONEWEB-0594             
1 54660U 22166U   24157.15102679  .00000076  00000+0  15148-3 0  9992
2 54660  87.9307  31.6919 0001963  86.0147 274.1211 13.21824841 73531
ONEWEB-0595             
1 54661U 22166V   24157.35602059 -.00000326  00000+0 -82045-3 0  9992
2 54661  87.9300  31.6386 0001990  76.5386 283.5969 13.21826424 73535
ONEWEB-0596             
1 54662U 22166W   24157.40492234 -.00000012  00000+0 -59459-4 0  9997
2 54662  87.9304  31.6342 0001509  78.7841 281.3462 13.21825684 73540
ONEWEB-0597             
1 54663U 22166X   24157.61308322  .00000095  00000+0  19946-3 0  9990
2 54663  87.9308  31.5945 0001633  90.8829 269.2492 13.21824721 73574
ONEWEB-0600             
1 54664U 22166Y   24157.59574424  .00000025  00000+0  28105-4 0  9997
2 54664  87.9297  31.6390 0001771  88.3708 271.7628 13.21825553 73548
ONEWEB-0601             
1 54665U 22166Z   24157.36076368  .00000063  00000+0  12185-3 0  9999
2 54665  87.9306  31.6490 0001321  86.1926 273.9359 13.21825229 73703
ONEWEB-0602             
1 54666U 22166AA  24157.62885996 -.00000027  00000+0 -96758-4 0  9995
2 54666  87.9304  31.5998 0001528  90.3062 269.8247 13.21824129 73585
ONEWEB-0603             
1 54667U 22166AB  24157.40649190 -.00000017  00000+0 -73772-4 0  9996
2 54667  87.9307  31.6452 0001496  90.8952 269.2354 13.21824068 73486
ONEWEB-0604             
1 54668U 22166AC  24157.62095510 -.00000018  00000+0 -76033-4 0  9996
2 54668  87.9300  31.5831 0002004  91.1269 269.0094 13.21826616 73470
ONEWEB-0605             
1 54669U 22166AD  24157.38757561  .00000039  00000+0  63083-4 0  9993
2 54669  87.9303  31.6624 0001200  81.4914 278.6356 13.21824380 73519
ONEWEB-0606             
1 54670U 22166AE  24157.40965513  .00000040  00000+0  65053-4 0  9997
2 54670  87.9304  31.6476 0002002  79.4330 280.7030 13.21825371 73577
ONEWEB-0607             
1 54671U 22166AF  24157.37654212  .00000039  00000+0  63804-4 0  9995
2 54671  87.9301  31.6322 0001651  89.5890 270.5433 13.21824891 73544
ONEWEB-0608             
1 54672U 22166AG  24157.38284746  .00000120  00000+0  25941-3 0  9998
2 54672  87.9311  31.6518 0001271  87.8930 272.2349 13.21824944 73552
ONEWEB-0610             
1 54673U 22166AH  24157.36392472  .00000080  00000+0  16113-3 0  9999
2 54673  87.9303  31.6511 0001379  85.3146 274.8145 13.21825142 73450
ONEWEB-0611             
1 54674U 22166AJ  24157.35761797  .00000073  00000+0  14551-3 0  9995
2 54674  87.9302  31.6514 0002266  82.1497 277.9894 13.21825477 73448
ONEWEB-0612             
1 54675U 22166AK  24157.37023192  .00000037  00000+0  58673-4 0  9992
2 54675  87.9301  31.6317 0001574  83.1324 276.9989 13.21824485 73431
ONEWEB-0615             
1 54676U 22166AL  24157.35130633  .00000033  00000+0  47507-4 0  9990
2 54676  87.9300  31.6603 0001785  90.5022 269.6316 13.21825625 73441
ONEWEB-0655             
1 54677U 22166AM  24157.62728991 -.00000034  00000+0 -11354-3 0  9994
2 54677  87.9301  31.6073 0001859  99.6195 260.5149 13.21823468 73477
ONEWEB-0659             
1 54678U 22166AN  24157.34183893  .00000017  00000+0  96876-5 0  9993
2 54678  87.9299  31.6708 0001967  77.7442 282.3912 13.21826545 73526
ONEWEB-0685             
1 54679U 22166AP  24157.34342384 -.00000004  00000+0 -42090-4 0  9992
2 54679  87.9301  31.6599 0001694  90.4821 269.6507 13.21825359 73417
ONEWEB-0712             
1 54680U 22166AQ  24157.51256186  .00000061  00000+0  12476-3 0  9992
2 54680  87.9110  16.4320 0002264  84.7887 275.3502 13.16592415 74465
ONEWEB-0714             
1 54681U 22166AR  24157.34971154 -.00000002  00000+0 -36805-4 0  9993
2 54681  87.9304  31.6446 0001690  92.0129 268.1198 13.21826963 73534
ONEWEB-0532             
1 55140U 23004A   24157.51600537  .00000099  00000+0  22237-3 0  9996
2 55140  87.9162 153.4950 0001585  75.4074 284.7233 13.17651276 69916
ONEWEB-0533             
1 55141U 23004B   24157.44135482 -.00000378  00000+0 -10851-2 0  9991
2 55141  87.8937 138.3244 0002052  91.0207 269.1157 13.12497139 70764
ONEWEB-0541             
1 55142U 23004C   24157.50139315  .00000038  00000+0  70174-4 0  9995
2 55142  87.8961 168.6286 0001997  90.0688 270.0669 13.11413151 68737
ONEWEB-0543             
1 55143U 23004D   24157.47144675  .00000055  00000+0  10788-3 0  9990
2 55143  87.9130 123.2012 0002397  90.6344 269.5062 13.18688054 71941
ONEWEB-0544             
1 55144U 23004E   24157.46511756  .00000016  00000+0  89329-5 0  9994
2 55144  87.9133 123.1872 0002145  80.7353 279.4021 13.18688416 71946
ONEWEB-0560             
1 55145U 23004F   24157.45879699  .00000061  00000+0  12159-3 0  9992
2 55145  87.9135 123.1389 0002536  83.5743 276.5678 13.18688745 71952
ONEWEB-0565             
1 55146U 23004G   24157.60422668  .00000065  00000+0  13160-3 0  9997
2 55146  87.9129 123.1888 0002369  67.4976 292.6407 13.18684004 71967
ONEWEB-0567             
1 55147U 23004H   24157.59791903 -.00000007  00000+0 -49552-4 0  9990
2 55147  87.9133 123.1434 0002456  74.6752 285.4651 13.18685571 71960
ONEWEB-0569             
1 55148U 23004J   24157.57065475 -.00000103  00000+0 -31744-3 0  9997
2 55148  87.8925 107.8168 0003110  71.4171 288.7295 13.13469132 72824
ONEWEB-0570             
1 55149U 23004K   24157.43351368  .00000020  00000+0  18036-4 0  9998
2 55149  87.9134 123.1727 0001624  63.1504 296.9794 13.18684645 71935
ONEWEB-0571             
1 55150U 23004L   24157.42719528  .00000023  00000+0  26176-4 0  9992
2 55150  87.9136 123.1797 0002661  60.6789 299.4609 13.18686079 71942
ONEWEB-0572             
1 55151U 23004M   24157.47171481  .00000084  00000+0  18191-3 0  9992
2 55151  87.9161 153.5115 0001955  82.1393 277.9960 13.17650913 69807
ONEWEB-0573             
1 55152U 23004N   24157.42085845  .00000037  00000+0  60528-4 0  9996
2 55152  87.9131 123.2024 0002337  58.1892 301.9467 13.18688276 71931
ONEWEB-0588             
1 55153U 23004P   24157.41452852  .00000035  00000+0  56249-4 0  9995
2 55153  87.9135 123.1697 0001804  67.7526 292.3797 13.18688878 71936
ONEWEB-0598             
1 55154U 23004Q   24157.47936449  .00000560  00000+0  15444-2 0  9994
2 55154  87.8962 168.6728 0002506  74.5594 285.5810 13.11416467 68688
ONEWEB-0599             
1 55155U 23004R   24157.50809701  .00000108  00000+0  24379-3 0  9995
2 55155  87.9167 153.4871 0002226  87.4396 272.6990 13.17650513 69810
ONEWEB-0614             
1 55156U 23004S   24157.47426988  .00000483  00000+0  13268-2 0  9994
2 55156  87.8964 168.6772 0001613  94.2527 265.8786 13.11416968 68627
ONEWEB-0616             
1 55157U 23004T   24157.47487758  .00000048  00000+0  89960-4 0  9998
2 55157  87.9162 153.5026 0003135 101.8297 258.3187 13.17651073 70027
ONEWEB-0617             
1 55158U 23004U   24157.46239785 -.00000010  00000+0 -64332-4 0  9990
2 55158  87.8959 168.6753 0001613  83.1837 276.9474 13.11417635 68644
ONEWEB-0618             
1 55159U 23004V   24157.53745884  .00000358  00000+0  13997-3 0  9994
2 55159  86.9059  97.4672 0012290 331.9292  28.1236 14.26810878 73683
ONEWEB-0619             
1 55160U 23004W   24157.50652263  .00000033  00000+0  51297-4 0  9997
2 55160  87.9163 153.4727 0002190 104.0275 256.1100 13.17646046 69922
ONEWEB-0620             
1 55161U 23004X   24157.45729525 -.00000210  00000+0 -62862-3 0  9996
2 55161  87.8962 168.6861 0001796  77.1588 282.9741 13.11415924 68610
ONEWEB-0621             
1 55162U 23004Y   24157.48444917  .00000570  00000+0  15729-2 0  9995
2 55162  87.8959 168.6504 0001871  99.2379 260.8961 13.11418111 68595
ONEWEB-0622             
1 55163U 23004Z   24157.48953284  .00000511  00000+0  14056-2 0  9995
2 55163  87.8959 168.6651 0001163  74.6982 285.4274 13.11417179 68582
ONEWEB-0623             
1 55164U 23004AA  24157.50176826  .00000084  00000+0  18244-3 0  9997
2 55164  87.9164 153.5273 0001181  90.0059 270.1208 13.17650378 69914
ONEWEB-0624             
1 55165U 23004AB  24157.40775378  .00000857  00000+0  23431-2 0  9995
2 55165  87.8937 138.3395 0001774  87.0370 273.0962 13.12563053 70759
ONEWEB-0625             
1 55166U 23004AC  24157.49071664  .00000049  00000+0  94095-4 0  9991
2 55166  87.9164 153.5281 0002200  96.5020 263.6362 13.17647544 69905
ONEWEB-0626             
1 55167U 23004AD  24157.48122341  .00000011  00000+0 -35515-5 0  9993
2 55167  87.9162 153.5309 0002144  72.5330 287.6036 13.17647699 69905
ONEWEB-0627             
1 55168U 23004AE  24157.47013887  .00000073  00000+0  15457-3 0  9995
2 55168  87.9162 153.5344 0001299  77.2054 282.9223 13.17647568 69901
ONEWEB-0628             
1 55169U 23004AF  24157.46330305  .00000366  00000+0  98536-3 0  9996
2 55169  87.8933 138.3166 0001192  98.7899 261.3365 13.12303496 70743
ONEWEB-0629             
1 55170U 23004AG  24157.46538618  .00000032  00000+0  49838-4 0  9997
2 55170  87.9158 153.5263 0001816 102.1526 257.9809 13.17646505 69908
ONEWEB-0631             
1 55171U 23004AH  24157.40823105  .00000011  00000+0 -46648-5 0  9995
2 55171  87.9141 123.0765 0002043  64.7880 295.3464 13.18685085 71913
